ONEWEB-0342             
1 49208U 21083Y   26007.82223245  .00000039  00000+0  64905-4 0  9999
2 49208  87.9229 306.4237 0001664  72.6213 287.5103 13.20771249215612
ONEWEB-0343             
1 49209U 21083Z   26007.74605683  .00000025  00000+0  30268-4 0  9991
2 49209  87.9179   7.3121 0001207  94.2736 265.8534 13.18685766208893
ONEWEB-0344             
1 49210U 21083AA  26007.68984139  .00000052  00000+0  10668-3 0  9993
2 49210  87.8980 352.1568 0001564  98.0681 262.0626 13.13469626209822
ONEWEB-0345             
1 49211U 21083AB  26007.68137234 -.00000113  00000+0 -34549-3 0  9994
2 49211  87.8990 352.1204 0001529  95.9430 264.1873 13.13470750209838
ONEWEB-0346             
1 49212U 21083AC  26007.74274669  .00000047  00000+0  85894-4 0  9990
2 49212  87.9173   7.3264 0002362  97.4983 262.6417 13.18683952208835
ONEWEB-0348             
1 49213U 21083AD  26007.81275083  .00001079  00000+0  26207-2 0  9997
2 49213  87.9223 306.4297 0001934  93.9945 266.1409 13.20780271215646
ONEWEB-0350             
1 49214U 21083AE  26007.69068652  .00000122  00000+0  29975-3 0  9990
2 49214  87.8996 352.1171 0001637  96.3740 263.7575 13.13468938209861
ONEWEB-0351             
1 49215U 21083AF  26007.80631791  .00000007  00000+0 -13763-4 0  9996
2 49215  87.9228 306.4288 0001083  49.3555 310.7672 13.20772008215603
ONEWEB-0352             
1 49216U 21083AG  26007.67121432 -.00000213  00000+0 -61949-3 0  9996
2 49216  87.8984 352.1408 0001403  76.6482 283.4803 13.13469796209954
ONEWEB-0354             
1 49217U 21083AH  26007.83170403  .00000024  00000+0  27374-4 0  9990
2 49217  87.9229 306.4228 0001703  86.5559 273.5769 13.20771584215641
ONEWEB-0355             
1 49218U 21083AJ  26007.85249627  .00000330  00000+0  87006-3 0  9995
2 49218  87.8980 352.1181 0001512  87.6733 272.4569 13.13469425209857
ONEWEB-0357             
1 49219U 21083AK  26007.82854794  .00000060  00000+0  11465-3 0  9996
2 49219  87.9227 306.4192 0001578  77.3332 282.7977 13.20772293215649
ONEWEB-0332             
1 49279U 21090A   26007.83844404 -.00000027  00000+0 -10745-3 0  9993
2 49279  87.9005 321.6658 0001752  71.4313 288.7007 13.14503571206513
ONEWEB-0347             
1 49280U 21090B   26007.81907929  .00000020  00000+0  16624-4 0  9999
2 49280  87.9223 306.4301 0001913  68.9968 291.1370 13.20773157209878
ONEWEB-0349             
1 49281U 21090C   26007.85063816  .00000073  00000+0  14808-3 0  9991
2 49281  87.9228 306.4232 0001690  77.3640 282.7682 13.20770918208660
ONEWEB-0353             
1 49282U 21090D   26007.83053890 -.00000019  00000+0 -85258-4 0  9991
2 49282  87.9019 321.6557 0001810  70.4430 289.6895 13.14502420206511
ONEWEB-0356             
1 49283U 21090E   26007.84905903  .00000144  00000+0  32291-3 0  9999
2 49283  87.9226 306.4172 0002648  78.4343 281.7087 13.20770815208663
