[{"OBJECT_NAME":"ONEWEB-0342","OBJECT_ID":"2021-083Y","EPOCH":"2026-01-07T19:44:00.883680","MEAN_MOTION":13.20771249,"ECCENTRICITY":0.0001664,"INCLINATION":87.9229,"RA_OF_ASC_NODE":306.4237,"ARG_OF_PERICENTER":72.6213,"MEAN_ANOMALY":287.5103,"EPHEMERIS_TYPE":0,"CLASSIFICATION_TYPE":"U","NORAD_CAT_ID":49208,"ELEMENT_SET_NO":999,"REV_AT_EPOCH":21561,"BSTAR":6.4905e-5,"MEAN_MOTION_DOT":3.9e-7,"MEAN_MOTION_DDOT":0},{"OBJECT_NAME":"ONEWEB-0343","OBJECT_ID":"2021-083Z","EPOCH":"2026-01-07T17:54:19.310112","MEAN_MOTION":13.18685766,"ECCENTRICITY":0.0001207,"INCLINATION":87.9179,"RA_OF_ASC_NODE":7.3121,"ARG_OF_PERICENTER":94.2736,"MEAN_ANOMALY":265.8534,"EPHEMERIS_TYPE":0,"CLASSIFICATION_TYPE":"U","NORAD_CAT_ID":49209,"ELEMENT_SET_NO":999,"REV_AT_EPOCH":20889,"BSTAR":3.0268e-5,"MEAN_MOTION_DOT":2.5e-7,"MEAN_MOTION_DDOT":0},{"OBJECT_NAME":"ONEWEB-0344","OBJECT_ID":"2021-083AA","EPOCH":"2026-01-07T16:33:22.296096","MEAN_MOTION":13.13469626,"ECCENTRICITY":0.0001564,"INCLINATION":87.898,"RA_OF_ASC_NODE":352.1568,"ARG_OF_PERICENTER":98.0681,"MEAN_ANOMALY":262.0626,"EPHEMERIS_TYPE":0,"CLASSIFICATION_TYPE":"U","NORAD_CAT_ID":49210,"ELEMENT_SET_NO":999,"REV_AT_EPOCH":20982,"BSTAR":0.00010668,"MEAN_MOTION_DOT":5.2e-7,"MEAN_MOTION_DDOT":0},{"OBJECT_NAME":"ONEWEB-0345","OBJECT_ID":"2021-083AB","EPOCH":"2026-01-07T16:21:10.570176","MEAN_MOTION":13.1347075,"ECCENTRICITY":0.0001529,"INCLINATION":87.899,"RA_OF_ASC_NODE":352.1204,"ARG_OF_PERICENTER":95.943,"MEAN_ANOMALY":264.1873,"EPHEMERIS_TYPE":0,"CLASSIFICATION_TYPE":"U","NORAD_CAT_ID":49211,"ELEMENT_SET_NO":999,"REV_AT_EPOCH":20983,"BSTAR":-0.00034549,"MEAN_MOTION_DOT":-1.13e-6,"MEAN_MOTION_DDOT":0},{"OBJECT_NAME":"ONEWEB-0346","OBJECT_ID":"2021-083AC","EPOCH":"2026-01-07T17:49:33.314016","MEAN_MOTION":13.18683952,"ECCENTRICITY":0.0002362,"INCLINATION":87.9173,"RA_OF_ASC_NODE":7.3264,"ARG_OF_PERICENTER":97.4983,"MEAN_ANOMALY":262.6417,"EPHEMERIS_TYPE":0,"CLASSIFICATION_TYPE":"U","NORAD_CAT_ID":49212,"ELEMENT_SET_NO":999,"REV_AT_EPOCH":20883,"BSTAR":8.5894e-5,"MEAN_MOTION_DOT":4.7e-7,"MEAN_MOTION_DDOT":0},{"OBJECT_NAME":"ONEWEB-0348","OBJECT_ID":"2021-083AD","EPOCH":"2026-01-07T19:30:21.671712","MEAN_MOTION":13.20780271,"ECCENTRICITY":0.0001934,"INCLINATION":87.9223,"RA_OF_ASC_NODE":306.4297,"ARG_OF_PERICENTER":93.9945,"MEAN_ANOMALY":266.1409,"EPHEMERIS_TYPE":0,"CLASSIFICATION_TYPE":"U","NORAD_CAT_ID":49213,"ELEMENT_SET_NO":999,"REV_AT_EPOCH":21564,"BSTAR":0.0026207,"MEAN_MOTION_DOT":1.079e-5,"MEAN_MOTION_DDOT":0},{"OBJECT_NAME":"ONEWEB-0350","OBJECT_ID":"2021-083AE","EPOCH":"2026-01-07T16:34:35.315328","MEAN_MOTION":13.13468938,"ECCENTRICITY":0.0001637,"INCLINATION":87.8996,"RA_OF_ASC_NODE":352.1171,"ARG_OF_PERICENTER":96.374,"MEAN_ANOMALY":263.7575,"EPHEMERIS_TYPE":0,"CLASSIFICATION_TYPE":"U","NORAD_CAT_ID":49214,"ELEMENT_SET_NO":999,"REV_AT_EPOCH":20986,"BSTAR":0.00029975,"MEAN_MOTION_DOT":1.22e-6,"MEAN_MOTION_DDOT":0},{"OBJECT_NAME":"ONEWEB-0351","OBJECT_ID":"2021-083AF","EPOCH":"2026-01-07T19:21:05.867424","MEAN_MOTION":13.20772008,"ECCENTRICITY":0.0001083,"INCLINATION":87.9228,"RA_OF_ASC_NODE":306.4288,"ARG_OF_PERICENTER":49.3555,"MEAN_ANOMALY":310.7672,"EPHEMERIS_TYPE":0,"CLASSIFICATION_TYPE":"U","NORAD_CAT_ID":49215,"ELEMENT_SET_NO":999,"REV_AT_EPOCH":21560,"BSTAR":-1.3763e-5,"MEAN_MOTION_DOT":7.0e-8,"MEAN_MOTION_DDOT":0},{"OBJECT_NAME":"ONEWEB-0352","OBJECT_ID":"2021-083AG","EPOCH":"2026-01-07T16:06:32.917248","MEAN_MOTION":13.13469796,"ECCENTRICITY":0.0001403,"INCLINATION":87.8984,"RA_OF_ASC_NODE":352.1408,"ARG_OF_PERICENTER":76.6482,"MEAN_ANOMALY":283.4803,"EPHEMERIS_TYPE":0,"CLASSIFICATION_TYPE":"U","NORAD_CAT_ID":49216,"ELEMENT_SET_NO":999,"REV_AT_EPOCH":20995,"BSTAR":-0.00061949,"MEAN_MOTION_DOT":-2.13e-6,"MEAN_MOTION_DDOT":0},{"OBJECT_NAME":"ONEWEB-0354","OBJECT_ID":"2021-083AH","EPOCH":"2026-01-07T19:57:39.228192","MEAN_MOTION":13.20771584,"ECCENTRICITY":0.0001703,"INCLINATION":87.9229,"RA_OF_ASC_NODE":306.4228,"ARG_OF_PERICENTER":86.5559,"MEAN_ANOMALY":273.5769,"EPHEMERIS_TYPE":0,"CLASSIFICATION_TYPE":"U","NORAD_CAT_ID":49217,"ELEMENT_SET_NO":999,"REV_AT_EPOCH":21564,"BSTAR":2.7374e-5,"MEAN_MOTION_DOT":2.4e-7,"MEAN_MOTION_DDOT":0},{"OBJECT_NAME":"ONEWEB-0355","OBJECT_ID":"2021-083AJ","EPOCH":"2026-01-07T20:27:35.677728","MEAN_MOTION":13.13469425,"ECCENTRICITY":0.0001512,"INCLINATION":87.898,"RA_OF_ASC_NODE":352.1181,"ARG_OF_PERICENTER":87.6733,"MEAN_ANOMALY":272.4569,"EPHEMERIS_TYPE":0,"CLASSIFICATION_TYPE":"U","NORAD_CAT_ID":49218,"ELEMENT_SET_NO":999,"REV_AT_EPOCH":20985,"BSTAR":0.00087006,"MEAN_MOTION_DOT":3.3e-6,"MEAN_MOTION_DDOT":0},{"OBJECT_NAME":"ONEWEB-0357","OBJECT_ID":"2021-083AK","EPOCH":"2026-01-07T19:53:06.542016","MEAN_MOTION":13.20772293,"ECCENTRICITY":0.0001578,"INCLINATION":87.9227,"RA_OF_ASC_NODE":306.4192,"ARG_OF_PERICENTER":77.3332,"MEAN_ANOMALY":282.7977,"EPHEMERIS_TYPE":0,"CLASSIFICATION_TYPE":"U","NORAD_CAT_ID":49219,"ELEMENT_SET_NO":999,"REV_AT_EPOCH":21564,"BSTAR":0.00011465,"MEAN_MOTION_DOT":6.0e-7,"MEAN_MOTION_DDOT":0},{"OBJECT_NAME":"ONEWEB-0332","OBJECT_ID":"2021-090A","EPOCH":"2026-01-07T20:07:21.565056","MEAN_MOTION":13.14503571,"ECCENTRICITY":0.0001752,"INCLINATION":87.9005,"RA_OF_ASC_NODE":321.6658,"ARG_OF_PERICENTER":71.4313,"MEAN_ANOMALY":288.7007,"EPHEMERIS_TYPE":0,"CLASSIFICATION_TYPE":"U","NORAD_CAT_ID":49279,"ELEMENT_SET_NO":999,"REV_AT_EPOCH":20651,"BSTAR":-0.00010745,"MEAN_MOTION_DOT":-2.7e-7,"MEAN_MOTION_DDOT":0},{"OBJECT_NAME":"ONEWEB-0347","OBJECT_ID":"2021-090B","EPOCH":"2026-01-07T19:39:28.450656","MEAN_MOTION":13.20773157,"ECCENTRICITY":0.0001913,"INCLINATION":87.9223,"RA_OF_ASC_NODE":306.4301,"ARG_OF_PERICENTER":68.9968,"MEAN_ANOMALY":291.137,"EPHEMERIS_TYPE":0,"CLASSIFICATION_TYPE":"U","NORAD_CAT_ID":49280,"ELEMENT_SET_NO":999,"REV_AT_EPOCH":20987,"BSTAR":1.6624e-5,"MEAN_MOTION_DOT":2.0e-7,"MEAN_MOTION_DDOT":0},{"OBJECT_NAME":"ONEWEB-0349","OBJECT_ID":"2021-090C","EPOCH":"2026-01-07T20:24:55.137024","MEAN_MOTION":13.20770918,"ECCENTRICITY":0.000169,"INCLINATION":87.9228,"RA_OF_ASC_NODE":306.4232,"ARG_OF_PERICENTER":77.364,"MEAN_ANOMALY":282.7682,"EPHEMERIS_TYPE":0,"CLASSIFICATION_TYPE":"U","NORAD_CAT_ID":49281,"ELEMENT_SET_NO":999,"REV_AT_EPOCH":20866,"BSTAR":0.00014808,"MEAN_MOTION_DOT":7.3e-7,"MEAN_MOTION_DDOT":0},{"OBJECT_NAME":"ONEWEB-0353","OBJECT_ID":"2021-090D","EPOCH":"2026-01-07T19:55:58.560960","MEAN_MOTION":13.1450242,"ECCENTRICITY":0.000181,"INCLINATION":87.9019,"RA_OF_ASC_NODE":321.6557,"ARG_OF_PERICENTER":70.443,"MEAN_ANOMALY":289.6895,"EPHEMERIS_TYPE":0,"CLASSIFICATION_TYPE":"U","NORAD_CAT_ID":49282,"ELEMENT_SET_NO":999,"REV_AT_EPOCH":20651,"BSTAR":-8.5258e-5,"MEAN_MOTION_DOT":-1.9e-7,"MEAN_MOTION_DDOT":0},{"OBJECT_NAME":"ONEWEB-0356","OBJECT_ID":"2021-090E","EPOCH":"2026-01-07T20:22:38.700192","MEAN_MOTION":13.20770815,"ECCENTRICITY":0.0002648,"INCLINATION":87.9226,"RA_OF_ASC_NODE":306.4172,"ARG_OF_PERICENTER":78.4343,"MEAN_ANOMALY":281.7087,"EPHEMERIS_TYPE":0,"CLASSIFICATION_TYPE":"U","NORAD_CAT_ID":49283,"ELEMENT_SET_NO":999,"REV_AT_EPOCH":20866,"BSTAR":0.00032291,"MEAN_MOTION_DOT":1.44e-6,"MEAN_MOTION_DDOT":0}]
